STARLINK-31532          
1 59349U 24060B   26068.82593453 -.00002790  00000+0 -91837-4 0  9994
2 59349  43.0036 259.0920 0001628 274.1104  85.9562 15.27594636110130
TROLL                   
1 62658U 25009BB  26068.22522958  .00013174  00000+0  48220-3 0  9994
2 62658  97.3932 150.7169 0001816  59.1850 300.9568 15.28164315118170
